OBJECT_NAME,OBJECT_ID,EPOCH,MEAN_MOTION,ECCENTRICITY,INCLINATION,RA_OF_ASC_NODE,ARG_OF_PERICENTER,MEAN_ANOMALY,EPHEMERIS_TYPE,CLASSIFICATION_TYPE,NORAD_CAT_ID,ELEMENT_SET_NO,REV_AT_EPOCH,BSTAR,MEAN_MOTION_DOT,MEAN_MOTION_DDOT
ALOS-2,2014-029A,2026-07-19T06:21:16.932384,14.79471485,.0001582,97.9229,296.9702,91.8312,268.3081,0,U,39766,999,65632,.26500722E-4,.147E-5,0
KAZEOSAT 2,2014-033A,2026-07-19T07:02:11.033664,14.85500927,.00077079,97.5391,38.2065,204.4264,155.6588,0,U,40010,999,65372,.584778E-6,-.45E-6,0
HODOYOSHI-4,2014-033B,2026-07-19T07:24:22.690944,14.88191478,.00229789,97.5460,23.5826,195.6623,164.3886,0,U,40011,999,65358,.6967036E-5,.12E-6,0
DEIMOS-2,2014-033D,2026-07-19T06:28:18.930720,14.93803674,.00013897,97.5778,73.6250,107.4117,252.7256,0,U,40013,999,64251,.12571539E-3,.1279E-4,0
HODOYOSHI-3,2014-033F,2026-07-19T04:22:22.391904,14.85441795,.00314003,97.6451,1.9416,248.1471,111.6404,0,U,40015,999,65237,.62379756E-4,.489E-5,0
SPOT 7,2014-034A,2026-07-19T05:37:10.577280,14.60983041,.00016084,98.0607,261.8977,96.6196,263.5188,0,U,40053,999,64181,.47585795E-4,.188E-5,0
SKYSAT-B,2014-037D,2026-07-18T20:43:17.099040,14.88096705,.0005859,98.3856,160.6392,161.5941,198.5487,0,U,40072,999,65067,.68340136E-4,.567E-5,0
WORLDVIEW-3 (WV-3),2014-048A,2026-07-19T05:45:24.209856,14.85067565,.00016006,97.8553,274.6288,150.1523,209.9783,0,U,40115,999,64666,.4850854E-4,.361E-5,0
GAOFEN-2,2014-049A,2026-07-19T06:29:42.387072,14.80930116,.00085,98.0089,264.4448,123.6463,236.5561,0,U,40118,999,64398,.5065094E-4,.338E-5,0
YAOGAN-21,2014-053A,2026-07-19T06:44:17.442816,15.26789466,.00072063,97.1454,239.1447,353.8546,6.2604,0,U,40143,999,65985,.83868249E-4,.214E-4,0
YAOGAN-22,2014-063A,2026-07-19T01:13:32.546496,13.15531702,.00069056,100.7768,351.8590,117.1319,243.0497,0,U,40275,999,56400,.42150227E-4,-.31E-6,0
ASNARO,2014-070A,2026-07-19T07:02:11.731776,15.19413080,.00045924,97.3433,275.5434,78.9586,281.2165,0,U,40298,999,64888,.22819487E-3,.4767E-4,0
YAOGAN-24,2014-072A,2026-07-19T06:43:18.631200,14.76121074,.00149441,98.1536,337.8919,156.8843,203.3041,0,U,40310,999,62845,.61800047E-4,.374E-5,0
CBERS 4,2014-079A,2026-07-19T07:25:07.819392,14.35516799,.00006307,98.3510,256.1300,62.5806,297.5445,0,U,40336,999,60856,.26560275E-4,.34E-6,0
YAOGAN-26,2014-088A,2026-07-19T06:15:43.725600,15.48553465,.00012551,97.0656,199.7481,313.8716,46.2432,0,U,40362,999,64266,.29955465E-3,.15881E-3,0
SMAP,2015-003A,2026-07-19T06:50:11.662080,14.63391004,.00016281,98.1285,206.9261,93.2520,266.8869,0,U,40376,999,61231,.42471227E-4,.173E-5,0
KOMPSAT-3A,2015-014A,2026-07-19T05:28:36.561216,15.55591962,.0055743,97.6901,193.9738,61.4160,299.2686,0,U,40536,999,62679,.28842475E-3,.21101E-3,0
SENTINEL-2A,2015-028A,2026-07-19T07:30:09.252576,14.30815446,.00013053,98.5672,274.7066,96.4214,263.7118,0,U,40697,999,57832,.48485062E-4,.83E-6,0
GAOFEN-8,2015-030A,2026-07-19T07:26:09.261888,15.47038108,.00098734,97.6900,35.6328,82.6030,277.6341,0,U,40701,999,61641,.19123157E-3,.9585E-4,0
CARBONITE 1 (CBNT-1),2015-032D,2026-07-19T06:51:19.727136,14.83672528,.00141909,97.6526,17.0115,183.1789,176.9337,0,U,40718,999,59410,.2282261E-4,.138E-5,0
YAOGAN-27,2015-040A,2026-07-19T06:16:22.464768,13.16070884,.00086658,100.1175,185.2552,136.2251,223.9551,0,U,40878,999,52188,-.47194879E-4,-.6E-6,0
GAOFEN-9 01,2015-047A,2026-07-19T07:35:22.837056,14.82939408,.00281719,97.6263,234.5496,37.4955,322.8217,0,U,40894,999,58495,.58963593E-4,.43E-5,0
YAOGAN-28,2015-064A,2026-07-19T06:55:25.373568,15.27789791,.00119963,97.3117,337.9115,80.4770,279.7825,0,U,41026,999,59558,.13182926E-3,.3511E-4,0
YAOGAN-29,2015-069A,2026-07-19T07:00:58.739328,14.83106695,.00003626,98.0014,228.9743,0.1635,359.9579,0,U,41038,999,57538,-.5957811E-5,-.102E-5,0
KENT RIDGE 1,2015-077B,2026-07-18T17:25:00.918048,15.23294374,.00082632,14.9807,31.4027,324.6648,35.3126,0,U,41167,999,58591,.60393113E-4,.2236E-4,0
GAOFEN-4,2015-083A,2026-07-18T17:24:23.161248,1.00270986,.00042426,0.4372,83.8070,125.0645,94.4453,0,U,41194,999,3884,0,-.341E-5,0
JASON-3,2016-002A,2026-07-19T05:39:29.943936,12.87628853,.00081443,66.0416,58.4570,270.5868,89.4217,0,U,41240,999,49137,.70389158E-4,-.44E-6,0
SENTINEL-3A,2016-011A,2026-07-19T06:22:53.741856,14.26740492,.0001318,98.6234,267.1862,89.1446,270.9885,0,U,41335,999,54263,.34464213E-4,.4E-6,0
ZIYUAN 3-02 (ZY 3-02),2016-033A,2026-07-19T06:53:42.929088,15.21457252,.00145203,97.3820,275.4447,170.8293,189.3211,0,U,41556,999,56286,.1266838E-3,.2785E-4,0
CARTOSAT-2C,2016-040A,2026-07-19T08:00:57.491136,15.19281639,.00091999,97.4459,259.8669,32.9149,327.2656,0,U,41599,999,55859,.10173448E-3,.2079E-4,0
