ALOS-2                  
1 39766U 14029A   26200.26477931  .00000147  00000+0  26501-4 0  9995
2 39766  97.9229 296.9702 0001582  91.8312 268.3081 14.79471485656326
KAZEOSAT 2              
1 40010U 14033A   26200.29318326 -.00000045  00000+0  58478-6 0  9997
2 40010  97.5391  38.2065 0007707 204.4264 155.6588 14.85500927653720
HODOYOSHI-4             
1 40011U 14033B   26200.30859596  .00000012  00000+0  69670-5 0  9997
2 40011  97.5460  23.5826 0022978 195.6623 164.3886 14.88191478653589
DEIMOS-2                
1 40013U 14033D   26200.26966355  .00001279  00000+0  12572-3 0  9999
2 40013  97.5778  73.6250 0001389 107.4117 252.7256 14.93803674642510
HODOYOSHI-3             
1 40015U 14033F   26200.18220361  .00000489  00000+0  62380-4 0  9997
2 40015  97.6451   1.9416 0031400 248.1471 111.6404 14.85441795652378
SPOT 7                  
1 40053U 14034A   26200.23415020  .00000188  00000+0  47586-4 0  9991
2 40053  98.0607 261.8977 0001608  96.6196 263.5188 14.60983041641815
SKYSAT-B                
1 40072U 14037D   26199.86339235  .00000567  00000+0  68340-4 0  9996
2 40072  98.3856 160.6392 0005859 161.5941 198.5487 14.88096705650679
WORLDVIEW-3 (WV-3)      
1 40115U 14048A   26200.23986354  .00000361  00000+0  48509-4 0  9997
2 40115  97.8553 274.6288 0001600 150.1523 209.9783 14.85067565646664
GAOFEN-2                
1 40118U 14049A   26200.27062948  .00000338  00000+0  50651-4 0  9994
2 40118  98.0089 264.4448 0008500 123.6463 236.5561 14.80930116643981
YAOGAN-21               
1 40143U 14053A   26200.28075744  .00002140  00000+0  83868-4 0  9995
2 40143  97.1454 239.1447 0007206 353.8546   6.2604 15.26789466659858
YAOGAN-22               
1 40275U 14063A   26200.05107114 -.00000031  00000+0  42150-4 0  9991
2 40275 100.7768 351.8590 0006905 117.1319 243.0497 13.15531702564005
ASNARO                  
1 40298U 14070A   26200.29319134  .00004767  00000+0  22819-3 0  9995
2 40298  97.3433 275.5434 0004592  78.9586 281.2165 15.19413080648888
YAOGAN-24               
1 40310U 14072A   26200.28007675  .00000374  00000+0  61800-4 0  9999
2 40310  98.1536 337.8919 0014944 156.8843 203.3041 14.76121074628450
CBERS 4                 
1 40336U 14079A   26200.30911828  .00000034  00000+0  26560-4 0  9998
2 40336  98.3510 256.1300 0000630  62.5806 297.5445 14.35516799608568
YAOGAN-26               
1 40362U 14088A   26200.26092275  .00015881  00000+0  29955-3 0  9994
2 40362  97.0656 199.7481 0001255 313.8716  46.2432 15.48553465642662
SMAP                    
1 40376U 15003A   26200.28485720  .00000173  00000+0  42471-4 0  9997
2 40376  98.1285 206.9261 0001628  93.2520 266.8869 14.63391004612318
KOMPSAT-3A              
1 40536U 15014A   26200.22820094  .00021101  00000+0  28842-3 0  9997
2 40536  97.6901 193.9738 0055743  61.4160 299.2686 15.55591962626794
SENTINEL-2A             
1 40697U 15028A   26200.31260709  .00000083  00000+0  48485-4 0  9993
2 40697  98.5672 274.7066 0001305  96.4214 263.7118 14.30815446578321
GAOFEN-8                
1 40701U 15030A   26200.30982942  .00009585  00000+0  19123-3 0  9993
2 40701  97.6900  35.6328 0009873  82.6030 277.6341 15.47038108616413
CARBONITE 1 (CBNT-1)    
1 40718U 15032D   26200.28564499  .00000138  00000+0  22823-4 0  9990
2 40718  97.6526  17.0115 0014190 183.1789 176.9337 14.83672528594105
YAOGAN-27               
1 40878U 15040A   26200.26137112 -.00000060  00000+0 -47195-4 0  9997
2 40878 100.1175 185.2552 0008665 136.2251 223.9551 13.16070884521886
GAOFEN-9 01             
1 40894U 15047A   26200.31623654  .00000430  00000+0  58964-4 0  9994
2 40894  97.6263 234.5496 0028171  37.4955 322.8217 14.82939408584959
YAOGAN-28               
1 41026U 15064A   26200.28848812  .00003511  00000+0  13183-3 0  9998
2 41026  97.3117 337.9115 0011996  80.4770 279.7825 15.27789791595582
YAOGAN-29               
1 41038U 15069A   26200.29234652 -.00000102  00000+0 -59578-5 0  9993
2 41038  98.0014 228.9743 0000362   0.1635 359.9579 14.83106695575389
KENT RIDGE 1            
1 41167U 15077B   26199.72570507  .00002236  00000+0  60393-4 0  9996
2 41167  14.9807  31.4027 0008263 324.6648  35.3126 15.23294374585917
GAOFEN-4                
1 41194U 15083A   26199.72526807 -.00000341  00000+0  00000+0 0  9997
2 41194   0.4372  83.8070 0004242 125.0645  94.4453  1.00270986 38843
JASON-3                 
1 41240U 16002A   26200.23576324 -.00000044  00000+0  70389-4 0  9991
2 41240  66.0416  58.4570 0008144 270.5868  89.4217 12.87628853491373
SENTINEL-3A             
1 41335U 16011A   26200.26589979  .00000040  00000+0  34464-4 0  9998
2 41335  98.6234 267.1862 0001318  89.1446 270.9885 14.26740492542635
ZIYUAN 3-02 (ZY 3-02)   
1 41556U 16033A   26200.28730242  .00002785  00000+0  12668-3 0  9999
2 41556  97.3820 275.4447 0014520 170.8293 189.3211 15.21457252562863
CARTOSAT-2C             
1 41599U 16040A   26200.33399874  .00002079  00000+0  10173-3 0  9997
2 41599  97.4459 259.8669 0009199  32.9149 327.2656 15.19281639558597
